#aV2013 12 28  0  0  0.00000000     288 DD+AD WGS84 FIT  NGA
## 1772 518400.00000000   300.00000000 56654 0.0000000000000
+   31     1  2  3  4  5  6  7  8  9 10 11 12 13 14 15 16 17
+         18 19 20 21 22 23 24 25 26 27 28 29 31 32  0  0  0
+          0  0  0  0  0  0  0  0  0  0  0  0  0  0  0  0  0
+          0  0  0  0  0  0  0  0  0  0  0  0  0  0  0  0  0
+          0  0  0  0  0  0  0  0  0  0  0  0  0  0  0  0  0
++         2  2  2  2  2  2  2  2  2  2  2  2  2  2  2  2  2
++         2  2  2  2  2  2  2  2  2  2  2  2  2  2  0  0  0
++         0  0  0  0  0  0  0  0  0  0  0  0  0  0  0  0  0
++         0  0  0  0  0  0  0  0  0  0  0  0  0  0  0  0  0
++         0  0  0  0  0  0  0  0  0  0  0  0  0  0  0  0  0
%c cc cc ccc ccc cccc cccc cccc cccc ccccc ccccc ccccc ccccc
%c cc cc ccc ccc cccc cccc cccc cccc ccccc ccccc ccccc ccccc
%f  0.0000000  0.000000000  0.00000000000  0.000000000000000
%f  0.0000000  0.000000000  0.00000000000  0.000000000000000
%i    0    0    0    0      0      0      0      0         0
%i    0    0    0    0      0      0      0      0         0
/*      NGA, ST. LOUIS,MO.                                  
/*   EPHEMERIS COMPUTED FROM  1 DAYS OF DATA                
/*   EPOCHA SMOOTHER                                       
/* CCCCCCCCCCCCCCCCCCCCCCCCCCCCCCCCCCCCCCCCCCCCCCCCCCCCCCCCC
*  2013 12 28 11  5  0.00000000
P  1  16269.026395   1139.815705  20949.684739     96.581943                    
V  1   9325.923282  24986.541741  -8474.057645      0.027139                    
P  2 -14498.518679 -21567.522956  -6408.658658    469.467338                    
V  2   -609.649479  -8857.173398  29525.008655      0.022119                    
P  3  21978.105011   9000.429744 -12602.367171    304.994980                    
V  3 -15120.078523   2811.113946 -25286.765441      0.048764                    
P  4  -5150.413406 -24987.763259   6597.180316      4.558988                    
V  4   6758.408040   6787.778957  29855.287822      0.002388                    
P  5 -11107.902878 -10946.579035 -21533.547561   -394.139965                    
V  5  16908.583777 -21439.334820   2338.254202      0.011092                    
P  6  16054.279723  13230.837681 -16679.035470    212.115887                    
V  6 -21256.820391    434.275287 -19659.624036      0.160027                    
P  7   9185.722536 -14375.349005 -20199.053538    296.469914                    
V  7  10256.354446  23759.598109 -12514.774599      0.041896                    
P  8   2517.047137 -22595.027473 -13057.424194     10.860748                    
V  8   6248.945658  15908.403672 -26621.095274      0.003372                    
P  9    446.371367 -23014.753564 -13645.091556    293.793586                    
V  9   7716.411270  14640.523195 -25578.367535      0.027190                    
P 10   4876.339744 -22146.699258 -13799.378329   -107.718215                    
V 10  12947.087900 -11665.400899  24290.547471     -0.014918                    
P 11  21027.829125   7128.600340  14252.809056   -450.641967                    
V 11   9481.355480  16920.905451 -21496.304613     -0.032800                    
P 12 -19462.617902   5776.610377  16961.870176    176.729920                    
V 12  12797.409009 -17530.188939  20800.567111      0.023290                    
P 13  19550.298542  -6848.155905 -16837.629816     45.567119                    
V 13  20109.638210   6284.146813  20820.583482     -0.037906                    
P 14  -1834.207905  14996.409031  22063.232459    206.445627                    
V 14 -26869.117701  -5660.723088   1491.693997     -0.011727                    
P 15 -26407.250372  -3798.686540  -1468.206302   -154.594930                    
V 15   2128.685666  -3057.992190 -30999.926136     -0.020011                    
P 16  10261.421322  10506.998430 -22149.012188   -237.368729                    
V 16 -18532.222994  20976.342543   1700.047681      0.012988                    
P 17   1212.379717 -15183.330862  22007.451751    -54.100698                    
V 17  26911.314382   4811.049740   1621.324376     -0.033812                    
P 18 -16393.945060  20636.409157   -584.778497    292.907422                    
V 18  -2584.994580  -3562.961011 -31171.551584      0.021251                    
P 19  25707.076798   7354.407833  -1908.177411   -428.406692                    
V 19  -2711.268256   1740.730369 -31439.582686     -0.025636                    
P 20  19850.208311  -9685.997363  14505.219208    148.253599                    
V 20  -8257.632876  17221.663323  22584.121856      0.031054                    
P 21  -7981.375858  16530.242145 -18422.237359   -335.102369                    
V 21 -11534.861556 -22196.622215 -14939.929759     -0.017434                    
P 22  -8248.509859  23153.688259  10067.839193    203.424139                    
V 22 -10542.876127   7817.013732 -27298.578273      0.020817                    
P 23  25847.039786  -1047.978577  -6795.090495     17.620854                    
V 23   8194.629557   3820.962356  29762.772321     -0.033038                    
P 24 -17256.044929  -6095.649143  19269.560631    -20.564657                    
V 24  -8259.040526 -23066.644750 -14612.045306     -0.006033                    
P 25 -19040.398135  17067.094545   6909.781828      5.443683                    
V 25   3538.095770  -8457.870500  30505.675464      0.025451                    
P 26 -19715.453563 -13434.662708 -12649.233550    209.800332                    
V 26  14834.533998   1967.553740 -26283.240912     -0.105042                    
P 27  18724.359216  12459.597025 -14152.983330    -11.071893                    
V 27 -18068.927780   -312.876200 -24164.147665     -0.024542                    
P 28  11746.474684 -22252.238290   8844.371405    320.124111                    
V 28   8272.268520  -6583.284653 -29734.862400      0.029296                    
P 29 -22005.700102   5470.193557 -13758.390149    498.839731                    
V 29 -16854.826089  -5267.768037  24824.933033      0.030412                    
P 31   6347.335046  25270.908897   4396.871283    331.688858                    
V 31  -4168.446579  -4210.545443  31710.386134      0.004297                    
P 32  16748.593439   3329.433851  20283.315489   -510.112460                    
V 32 -16490.070405  19853.155031  10937.523964      0.054553                    
EOF
